CZ-4B R/B               
1 28059U 03049C   18280.82375330 -.00000004  00000-0  11032-4 0  9996
2 28059  98.5070 179.7898 0049183 228.5159 173.0505 14.52538131793015
CZ-2C R/B               
1 28222U 04012C   18280.90045786  .00000845  00000-0  55023-4 0  9997
2 28222  97.5882 235.5800 0047473 350.2467  72.5652 15.09839958792644
SL-16 R/B               
1 28353U 04021B   18281.29797643 -.00000294  00000-0 -12907-3 0  9994
2 28353  71.0003 155.7686 0006142 217.8947 142.1743 14.14215574739750
CZ-2C R/B               
1 28480U 04046B   18281.32605407  .00000011  00000-0  20046-4 0  9991
2 28480  98.1673 351.1433 0140804 252.9379 148.1878 14.25682787722369
ARIANE 5 R/B            
1 28499U 04049H   18281.28744095  .00000067  00000-0  15460-4 0  9991
2 28499  98.0577  11.3571 0093603 110.9610 314.9614 14.79924916744709
CZ-2D R/B               
1 28738U 05024B   18280.67003955  .00000208  00000-0  15930-4 0  9995
2 28738  97.4448 311.6823 0012781 153.3468 206.8422 15.11631170727937
SUZAKU (ASTRO-EII)      
1 28773U 05025A   18281.56464823  .00001171  00000-0  53890-4 0  9996
2 28773  31.3829  71.8182 0004359 112.9578 247.1529 15.16727090730026
ALOS (DAICHI)           
1 28931U 06002A   18281.45808362  .00000115  00000-0  31211-4 0  9996
2 28931  97.8183 289.0666 0000112  55.0862 305.0364 14.62535147677366
H-2A R/B                
1 28932U 06002B   18280.91195344  .00000051  00000-0  11108-4 0  9998
2 28932  98.2431 229.1248 0089040 185.3075 211.3442 14.91801639688912
AKARI (ASTRO-F)         
1 28939U 06005A   18280.89739053  .00003846  00000-0  11205-3 0  9998
2 28939  98.1930 178.0604 0099563 325.9235  33.5637 15.31316100686143
RESURS-DK 1             
1 29228U 06021A   18281.51833578  .00000114  00000-0  15976-4 0  9990
2 29228  69.9357 320.8889 0006977 305.4853  54.5656 15.02363075679936
GENESIS 1               
1 29252U 06029A   18280.91567436  .00000451  00000-0  32298-4 0  9995
2 29252  64.5036 164.3357 0046458 279.0275  80.5591 15.17440324674224
CZ-4B R/B               
1 29507U 06046C   18280.96304830  .00000022  00000-0  66944-5 0  9999
2 29507  97.7736 293.8351 0051913  80.1251 280.5827 15.00310105652620
CZ-2C R/B               
1 31114U 07010B   18280.75955670 -.00000031  00000-0  45529-5 0  9996
2 31114  98.3436 162.2497 0058554 268.3781  91.0689 14.19279030595253
COSMO-SKYMED 1          
1 31598U 07023A   18281.48611223  .00000337  00000-0  48921-4 0  9996
2 31598  97.8899 103.4562 0001298  97.5816 262.5555 14.82150782613294
GENESIS 2               
1 31789U 07028A   18280.93229281  .00000631  00000-0  42225-4 0  9999
2 31789  64.5047 204.0274 0029143 314.7420  45.1330 15.16680153621354
COSMOS 2428             
1 31792U 07029A   18281.52501362 -.00000044  00000-0  18459-5 0  9995
2 31792  70.9660 129.0776 0010996 268.0163  91.9699 14.12559306581604
SL-16 R/B               
1 31793U 07029B   18280.96648337 -.00000312  00000-0 -13774-3 0  9999
2 31793  70.9735 105.5617 0002235 265.1624 203.2637 14.14406054582231
KORONAS-FOTON           
1 33504U 09003A   18281.53683320  .00000266  00000-0  12442-4 0  9998
2 33504  82.4398 117.4773 0017760 255.4835 104.4427 15.15252387533905
H-2A R/B                
1 38341U 12025E   18280.91443790  .00000112  00000-0  20546-4 0  9990
2 38341  98.4278  29.1295 0056787  61.8814 298.8121 14.83801128345636
CUSAT 2 & FALCON 9 R/B  
1 39271U 13055G   18281.47522734  .00004890  00000-0  12281-3 0  9998
2 39271  80.9709 208.9051 0609589 221.0289 134.3516 14.42710204261460
ALOS-2                  
1 39766U 14029A   18281.48213144 -.00000037  00000-0  19253-5 0  9990
2 39766  97.9223  16.9456 0001501  90.7199 269.4189 14.79470898236320
SL-27 R/B               
1 40354U 14084B   18280.89802010  .00001444  00000-0  37493-4 0  9993
2 40354  74.7385 226.8617 0038359   5.9272 354.2385 15.39266940212939
ASTRO-H (HITOMI)        
1 41337U 16012A   18280.55293997  .00000268  00000-0  14871-4 0  9997
2 41337  31.0063 333.3405 0012367  75.5778 284.6229 14.98507717144586
TIANGONG-2              
1 41765U 16057A   18281.69375685  .00003480  00000-0  47041-4 0  9996
2 41765  42.7857  25.3691 0008331 322.1173 183.2336 15.59644371117749
SHENZHOU-11 MODULE      
1 41868U 16061G   18280.65772891  .00009018  00000-0  63968-4 0  9999
2 41868  42.7950 349.3574 0001271  44.6258  85.8321 15.74190127107991
